[
    {
        "Altitude(m)": 604234.6225647217,
        "Argument of Periapsis(deg)": 0.0,
        "Eccentricity": 0.0,
        "Inclination(deg)": 60.0,
        "Latitude(deg)": 14.117311809057279,
        "Longitude(deg)": 131.7273447139415,
        "Mean Anomaly(deg)": 163.6364,
        "RAAN(deg)": 60.0,
        "Satellite Name": "Test1 274",
        "Satellite Number": 274,
        "Semi-Major Axis(m)": 6980739.136638005,
        "Time(s)": 0
    },
    {
        "Altitude(m)": 604223.450608113,
        "Argument of Periapsis(deg)": 0.00010418945913296404,
        "Eccentricity": 0.0,
        "Inclination(deg)": 60.0,
        "Latitude(deg)": 13.58244783070195,
        "Longitude(deg)": 132.01425329641208,
        "Mean Anomaly(deg)": 164.25650614546183,
        "RAAN(deg)": 59.99957995086026,
        "Satellite Name": "Test1 274",
        "Satellite Number": 274,
        "Semi-Major Axis(m)": 6980739.136638005,
        "Time(s)": 10
    },
    {
        "Altitude(m)": 604215.2339141485,
        "Argument of Periapsis(deg)": 0.0002083789182659281,
        "Eccentricity": 0.0,
        "Inclination(deg)": 60.0,
        "Latitude(deg)": 13.047135714715933,
        "Longitude(deg)": 132.29969136119115,
        "Mean Anomaly(deg)": 164.87661229092367,
        "RAAN(deg)": 59.99915990172052,
        "Satellite Name": "Test1 274",
        "Satellite Number": 274,
        "Semi-Major Axis(m)": 6980739.136638005,
        "Time(s)": 20
    },
    {
        "Altitude(m)": 604210.0003751105,
        "Argument of Periapsis(deg)": 0.00031256837739889213,
        "Eccentricity": 0.0,
        "Inclination(deg)": 60.0,
        "Latitude(deg)": 12.511395849729185,
        "Longitude(deg)": 132.5837236217498,
        "Mean Anomaly(deg)": 165.4967184363855,
        "RAAN(deg)": 59.998739852580776,
        "Satellite Name": "Test1 274",
        "Satellite Number": 274,
        "Semi-Major Axis(m)": 6980739.136638005,
        "Time(s)": 30
    },
    {
        "Altitude(m)": 604207.7765392284,
        "Argument of Periapsis(deg)": 0.0004167578365318562,
        "Eccentricity": 0.0,
        "Inclination(deg)": 60.0,
        "Latitude(deg)": 11.975248348413778,
        "Longitude(deg)": 132.86641444617447,
        "Mean Anomaly(deg)": 166.11682458184734,
        "RAAN(deg)": 59.998319803441035,
        "Satellite Name": "Test1 274",
        "Satellite Number": 274,
        "Semi-Major Axis(m)": 6980739.136638005,
        "Time(s)": 40
    },
    {
        "Altitude(m)": 604208.5875949091,
        "Argument of Periapsis(deg)": 0.0005209472956648203,
        "Eccentricity": 0.0,
        "Inclination(deg)": 60.0,
        "Latitude(deg)": 11.438713061432432,
        "Longitude(deg)": 133.14782688888351,
        "Mean Anomaly(deg)": 166.7369307273092,
        "RAAN(deg)": 59.99789975430128,
        "Satellite Name": "Test1 274",
        "Satellite Number": 274,
        "Semi-Major Axis(m)": 6980739.136638005,
        "Time(s)": 50
    },
    {
        "Altitude(m)": 604212.4573555975,
        "Argument of Periapsis(deg)": 0.0006251367547977843,
        "Eccentricity": 0.0,
        "Inclination(deg)": 60.0,
        "Latitude(deg)": 10.901809591028952,
        "Longitude(deg)": 133.4280232345291,
        "Mean Anomaly(deg)": 167.35703687277098,
        "RAAN(deg)": 59.99747970516154,
        "Satellite Name": "Test1 274",
        "Satellite Number": 274,
        "Semi-Major Axis(m)": 6980739.136638005,
        "Time(s)": 60
    },
    {
        "Altitude(m)": 604219.4082452914,
        "Argument of Periapsis(deg)": 0.0007293262139307483,
        "Eccentricity": 0.0,
        "Inclination(deg)": 60.0,
        "Latitude(deg)": 10.364557304280536,
        "Longitude(deg)": 133.70706554124138,
        "Mean Anomaly(deg)": 167.97714301823282,
        "RAAN(deg)": 59.9970596560218,
        "Satellite Name": "Test1 274",
        "Satellite Number": 274,
        "Semi-Major Axis(m)": 6980739.136638005,
        "Time(s)": 70
    },
    {
        "Altitude(m)": 604229.4612847645,
        "Argument of Periapsis(deg)": 0.0008335156730637124,
        "Eccentricity": 0.0,
        "Inclination(deg)": 60.0,
        "Latitude(deg)": 9.826975346033269,
        "Longitude(deg)": 133.98501467036888,
        "Mean Anomaly(deg)": 168.5972491636947,
        "RAAN(deg)": 59.996639606882056,
        "Satellite Name": "Test1 274",
        "Satellite Number": 274,
        "Semi-Major Axis(m)": 6980739.136638005,
        "Time(s)": 80
    },
    {
        "Altitude(m)": 604242.6360784428,
        "Argument of Periapsis(deg)": 0.0009377051321966765,
        "Eccentricity": 0.0,
        "Inclination(deg)": 60.0,
        "Latitude(deg)": 9.289082651534228,
        "Longitude(deg)": 134.26193082849304,
        "Mean Anomaly(deg)": 169.21735530915652,
        "RAAN(deg)": 59.996219557742315,
        "Satellite Name": "Test1 274",
        "Satellite Number": 274,
        "Semi-Major Axis(m)": 6980739.136638005,
        "Time(s)": 90
    },
    {
        "Altitude(m)": 604258.9508019662,
        "Argument of Periapsis(deg)": 0.0010418945913296407,
        "Eccentricity": 0.0,
        "Inclination(deg)": 60.0,
        "Latitude(deg)": 8.750897958780149,
        "Longitude(deg)": 134.53787410887338,
        "Mean Anomaly(deg)": 169.83746145461834,
        "RAAN(deg)": 59.995799508602566,
        "Satellite Name": "Test1 274",
        "Satellite Number": 274,
        "Semi-Major Axis(m)": 6980739.136638005,
        "Time(s)": 100
    },
    {
        "Altitude(m)": 604278.4221904615,
        "Argument of Periapsis(deg)": 0.0011460840504626045,
        "Eccentricity": 0.0,
        "Inclination(deg)": 60.0,
        "Latitude(deg)": 8.212439820601915,
        "Longitude(deg)": 134.81290351947743,
        "Mean Anomaly(deg)": 170.45756760008015,
        "RAAN(deg)": 59.995379459462825,
        "Satellite Name": "Test1 274",
        "Satellite Number": 274,
        "Semi-Major Axis(m)": 6980739.136638005,
        "Time(s)": 110
    },
    {
        "Altitude(m)": 604301.0655275008,
        "Argument of Periapsis(deg)": 0.0012502735095955685,
        "Eccentricity": 0.0,
        "Inclination(deg)": 60.0,
        "Latitude(deg)": 7.673726616497078,
        "Longitude(deg)": 135.08707752337455,
        "Mean Anomaly(deg)": 171.07767374554194,
        "RAAN(deg)": 59.99495941032308,
        "Satellite Name": "Test1 274",
        "Satellite Number": 274,
        "Semi-Major Axis(m)": 6980739.136638005,
        "Time(s)": 120
    },
    {
        "Altitude(m)": 604326.8946347729,
        "Argument of Periapsis(deg)": 0.0013544629687285324,
        "Eccentricity": 0.0,
        "Inclination(deg)": 60.0,
        "Latitude(deg)": 7.134776564229563,
        "Longitude(deg)": 135.36045457864856,
        "Mean Anomaly(deg)": 171.6977798910038,
        "RAAN(deg)": 59.994539361183335,
        "Satellite Name": "Test1 274",
        "Satellite Number": 274,
        "Semi-Major Axis(m)": 6980739.136638005,
        "Time(s)": 130
    },
    {
        "Altitude(m)": 604355.9218624781,
        "Argument of Periapsis(deg)": 0.0014586524278614966,
        "Eccentricity": 0.0,
        "Inclination(deg)": 60.0,
        "Latitude(deg)": 6.595607731213826,
        "Longitude(deg)": 135.6330921649853,
        "Mean Anomaly(deg)": 172.31788603646564,
        "RAAN(deg)": 59.994119312043594,
        "Satellite Name": "Test1 274",
        "Satellite Number": 274,
        "Semi-Major Axis(m)": 6980739.136638005,
        "Time(s)": 140
    },
    {
        "Altitude(m)": 604388.1580804203,
        "Argument of Periapsis(deg)": 0.0015628418869944607,
        "Eccentricity": 0.0,
        "Inclination(deg)": 60.0,
        "Latitude(deg)": 6.056238045695507,
        "Longitude(deg)": 135.90504732271248,
        "Mean Anomaly(deg)": 172.93799218192746,
        "RAAN(deg)": 59.99369926290385,
        "Satellite Name": "Test1 274",
        "Satellite Number": 274,
        "Semi-Major Axis(m)": 6980739.136638005,
        "Time(s)": 150
    },
    {
        "Altitude(m)": 604423.6126698562,
        "Argument of Periapsis(deg)": 0.0016670313461274247,
        "Eccentricity": 0.0,
        "Inclination(deg)": 60.0,
        "Latitude(deg)": 5.51668530774596,
        "Longitude(deg)": 136.17637719144753,
        "Mean Anomaly(deg)": 173.5580983273893,
        "RAAN(deg)": 59.99327921376411,
        "Satellite Name": "Test1 274",
        "Satellite Number": 274,
        "Semi-Major Axis(m)": 6980739.136638005,
        "Time(s)": 160
    },
    {
        "Altitude(m)": 604462.2935160192,
        "Argument of Periapsis(deg)": 0.0017712208052603888,
        "Eccentricity": 0.0,
        "Inclination(deg)": 60.0,
        "Latitude(deg)": 4.9769672000875875,
        "Longitude(deg)": 136.4471380355092,
        "Mean Anomaly(deg)": 174.17820447285115,
        "RAAN(deg)": 59.99285916462437,
        "Satellite Name": "Test1 274",
        "Satellite Number": 274,
        "Semi-Major Axis(m)": 6980739.136638005,
        "Time(s)": 170
    },
    {
        "Altitude(m)": 604504.2070014494,
        "Argument of Periapsis(deg)": 0.001875410264393353,
        "Eccentricity": 0.0,
        "Inclination(deg)": 60.0,
        "Latitude(deg)": 4.4371012987607115,
        "Longitude(deg)": 136.7173857818695,
        "Mean Anomaly(deg)": 174.798310618313,
        "RAAN(deg)": 59.99243911548463,
        "Satellite Name": "Test1 274",
        "Satellite Number": 274,
        "Semi-Major Axis(m)": 6980739.136638005,
        "Time(s)": 180
    },
    {
        "Altitude(m)": 604549.3579999938,
        "Argument of Periapsis(deg)": 0.0019795997235263173,
        "Eccentricity": 0.0,
        "Inclination(deg)": 60.0,
        "Latitude(deg)": 3.8971050836489534,
        "Longitude(deg)": 136.98717655780314,
        "Mean Anomaly(deg)": 175.41841676377476,
        "RAAN(deg)": 59.99201906634489,
        "Satellite Name": "Test1 274",
        "Satellite Number": 274,
        "Semi-Major Axis(m)": 6980739.136638005,
        "Time(s)": 190
    }
]